#dP2023  4 13  0  0  0.00000000     288   u+U IGS20 FIT  GFZ                    
## 2257 345600.00000000   300.00000000 60047 0.0000000000000                    
+  127   C01C02C03C04C05C06C07C08C09C10C11C12C13C14C16C19C20                    
+        C21C22C23C24C25C26C27C28C29C30C32C33C34C35C36C37C38                    
+        C39C40C41C42C43C44C45C46C59C60E01E02E03E04E05E07E08                    
+        E09E10E11E12E13E14E15E18E19E21E24E25E26E27E30E31E33                    
+        E34E36G01G02G03G04G05G06G07G08G09G10G11G12G13G14G15                    
+        G16G17G18G19G20G21G22G23G24G25G26G27G28G29G30G31G32                    
+        J02J03J04J07R01R02R03R04R05R07R08R09R11R12R13R14R15                    
+        R16R17R18R19R20R21R22R24 00 00 00 00 00 00 00 00 00                    
++        10 10 10 10 10 10 10 10 10  9 10  7 10  9  8  5  5                    
++         5  5 10  6  9 10  5  7  7  5  7  7  6  6  9 10 10                    
++        10 10  5  8  6  6 10  8 10 10  5  5  6  7  5  5  6                    
++         5  8  6  6  8  6  9  5  6  6  6  5  6  5  8  8 10                    
++         6  6  7  5  6  6  8  5  6  5  5  5  5  6  5  5  5                    
++         8  7  8  7  8  7  5  5  6  8  7  6 10  5  5  6  6                    
++        10 10 10 10  7  6  7  5  6  6  6  6  5  7  8  7  8                    
++        10  6  6 10  9  8  6  6  0  0  0  0  0  0  0  0  0                    
%c M  cc GPS ccc cccc cccc cccc cccc ccccc ccccc ccccc ccccc                    
%c cc cc ccc ccc cccc cccc cccc cccc ccccc ccccc ccccc ccccc                    
%f  1.2500000  1.025000000  0.00000000000  0.000000000000000                    
%f  0.0000000  0.000000000  0.00000000000  0.000000000000000                    
%i    0    0    0    0      0      0      0      0         0                    
%i    0    0    0    0      0      0      0      0         0                    
/* PCV:IGSM3_2194 OL/AL:FES2014b NONE     YN CLK:CoN ORB:CoN                    
/*     GeoForschungsZentrum Potsdam                                             
/*                                                                              
/*                                                                              
*  2023  4 13  8 15  0.00000000                                                 
PC01 -34313.271240  24503.706573    546.396619    898.325351                    
PC02   4386.961853  41883.450321   -677.057426   -860.063532                    
PC03 -14778.185091  39447.498459    192.136448    538.989276                    
PC04 -39605.814699  14448.967295    614.405742    165.304263                    
PC05  21764.322638  35978.912899   -660.567898   -452.289111                    
PC06  -5021.228121  24849.121735 -33631.852258   -197.145092                    
PC07 -18428.686452  33698.255272  17238.493989    135.407558                    
PC08  -4869.589942  39835.560257  13220.380912    505.655703                    
PC09   4875.944195  28211.460772 -30359.740650    772.578071                    
PC10 -10278.742092  33673.676885  23132.894716    -32.111804                    
PC11  19475.372009  15468.317230  12733.490002    297.854019                    
PC12    866.112045  16139.955184  22780.782080    568.668806                    
PC13   -481.739523  41742.168742   7002.087517    251.742987                    
PC14   9846.815196  12362.214811 -22973.995504    117.153074                    
PC16  -7911.132492  22866.508019 -34282.857458    110.750471                    
PC19 -17234.397596  -3992.864901  21607.068580   -900.858699                    
PC20  -2345.456830 -17811.099106  21382.985370    628.176008                    
PC21 -15188.235829  21913.769003  -8167.085996   -909.895089                    
PC22 -22949.766409  12808.911288   9340.942723   -538.184788                    
PC23  15662.543690  -4634.669944  22626.831068   -904.894527                    
PC24   6555.147019  27136.757969    301.132709   -177.094467                    
PC25  16468.750882  14728.023055  17048.320044    105.790482                    
PC26  -5031.575922  23121.107643 -14835.846833   -105.596449                    
PC27   8734.846349 -13768.969762 -22667.693568    124.929306                    
PC28  23673.124885  -3080.784924 -14449.911994     91.981918                    
PC29 -25885.968001  -9747.596578  -3731.033929    106.515137                    
PC30 -11534.303100 -16893.861415 -19003.942003      0.437802                    
PC32  15047.482413 -22062.204454   8150.413183   -579.934061                    
PC33  17241.928916   3930.919503 -21581.562331   -873.396731                    
PC34  12801.229461  16770.260977  18237.475002    147.914259                    
PC35 -24100.845823   3324.209406  13694.290957    646.948189                    
PC36 -15941.633557 -15778.632226 -16579.210531   -503.965459                    
PC37   6425.060360 -22118.436511  15749.710983   -790.451516                    
PC38  -9922.675996  35736.315897  20218.335014     71.464606                    
PC39 -13435.115816  20241.409809 -34431.380592     -2.516058                    
PC40 -25405.771404  28832.560810  17066.603094    -20.207377                    
PC41  22934.630418 -12460.646250  -9830.081209   -844.606046                    
PC42   1136.588500  18527.920947 -20778.353293   -739.352810                    
PC43  25536.503241  10280.129184   4480.676013     16.479646                    
PC44  -8522.888289  14102.504891  22509.134234     74.485623                    
PC45 -15409.543270   5135.328731 -22695.632929    -84.461775                    
PC46  -7576.729898 -26769.802839  -1898.631541    -46.658127                    
PC59 -32345.476516  27016.822976   -471.923317     -0.555958                    
PC60   7316.929072  41506.811505    874.591543     -0.667680                    
PE01  18325.449921  -6439.486376  22329.533162     -1.937362                    
PE02 -18374.532195   6980.201697 -22145.494157     32.072114                    
PE03 -29109.727861   5215.825950   1114.583926   -668.737305                    
PE04  19413.483242 -15543.439763  16067.504327    -99.548059                    
PE05 -21891.277425  -8438.276660  18057.020353    -77.225143                    
PE07   1747.027159  16985.657140 -24166.145142    -37.237374                    
PE08 -19616.275396  15392.823884 -15935.344414    -66.614646                    
PE09  -1517.140341 -16893.013687  24268.591578   -903.189535                    
PE10   -692.383510 -20910.295983 -20949.773288   -526.132991                    
PE11 -10110.309681 -24382.868507 -13429.929422   1589.994204                    
PE12   8104.493425 -14647.268699 -24419.934340   -496.825997                    
PE13   9489.694129  24206.651002  14134.959648    -18.497723                    
PE14 -18237.550042  10553.275723  10445.169532    195.808107                    
PE15  -8350.832032  14305.090431  24532.498162    -14.250653                    
PE18  21937.966777 -16424.721475 -17440.353648   -171.095678                    
PE19  29180.760992  -3338.728777  -3655.634031  -2777.094457                    
PE21  12281.462948  13561.211319  23263.510387   -523.101705                    
PE24   1840.965950 -27662.473566 -10357.329476    -41.643631                    
PE25 -12104.651454 -13884.464368 -23168.907807   -603.183408                    
PE26  21786.797390  19355.436961  -5163.485330     73.855735                    
PE27  -1225.605594  27452.479239  11013.069096    -23.940830                    
PE30 -14266.972727  24638.880728  -8139.843260    -89.124333                    
PE31  13866.445319 -25021.494238   7595.471112   -521.165039                    
PE33  21104.559549   3943.551952 -20368.400837   -446.456461                    
PE34 -21062.413642  -3771.659845  20445.676674    -39.969068                    
PE36 -21553.744147 -19816.855198   4407.885321    -40.653213                    
PG01 -19942.292312 -11421.037860  13293.694677    193.731127                    
PG02  17986.973242    -64.203561 -19003.910970   -606.483056                    
PG03 -15279.651627   -761.641770  21571.259998   -330.248191                    
PG04 -26016.957182   -783.631719   5593.972201     15.693784                    
PG05   7994.341407  17108.547438 -18799.166785   -123.219455                    
PG06    185.074585  19429.148625  18124.354660    586.644038                    
PG07 -16297.905811   2967.560675 -20412.541130    202.421719                    
PG08 -19853.883316  -7857.431054 -16111.188258   -117.520788                    
PG09 -24971.604681   7841.905917  -4720.513548   -181.020292                    
PG10  11084.123260 -23776.727738  -2709.049120    -32.627330                    
PG11  11385.079816  23169.740445   6333.109560   -160.943442                    
PG12  14455.715085   4313.054140  21573.841429   -363.338411                    
PG13  12667.528987  13176.350354 -19516.614882    505.037741                    
PG14 -13579.515237  22079.195165  -5430.285329     23.689982                    
PG15  20849.961878   6054.919585 -15928.181310     30.196075                    
PG16  -3945.613131 -19564.933058 -17594.514558   -509.168412                    
PG17 -15879.970195  13192.217220  17198.752776    710.342153                    
PG18  13500.740702  -6815.411672 -21844.511912   -222.067110                    
PG19  -6099.970587  14614.535461  21042.362454    303.011959                    
PG20   3101.855644  24090.595523 -10944.874743    439.321634                    
PG21 -21074.822989 -16019.077934   5942.988810    154.234889                    
PG22   2128.356436 -15464.222763  21923.174418    463.253001                    
PG23  15696.636283 -16320.998336 -13753.437603     16.529715                    
PG24  21495.489119  13220.624593   8575.233783   -149.885854                    
PG25  16931.451006  -7928.234362  18447.236046    435.231841                    
PG26   3207.114099 -25488.002124  -6115.901299    241.763960                    
PG27  -9041.948674 -13448.868031 -21362.726462     60.008645                    
PG28   1125.666932 -18714.874168  18788.122601     64.066722                    
PG29  26420.224567  -2908.335821  -1223.902177   -595.304356                    
PG30  -7643.392836  14756.930442 -20563.037067   -522.599269                    
PG31  -4838.846162 -22004.867122  13542.420955   -213.857433                    
PG32  12383.475544 -14973.711400  18195.988246   -450.202823                    
PJ02 -24440.221920  32200.884207  -7537.956286     -1.512567                    
PJ03 -27476.777932  21697.759655  28576.458626      2.230573                    
PJ04 -33452.212009  25850.729281   5211.909303     94.180979                    
PJ07 -25376.824628  33667.815564    -49.915578      0.034828                    
PR01 -17358.215309  16670.124438  -8424.020356     26.569695                    
PR02  -2401.150673  13443.599887 -21508.227637    -22.968616                    
PR03  13889.278103   2943.509168 -21125.252522     75.926531                    
PR04  22067.173177  -8941.111884  -9103.906502    183.117081                    
PR05  18331.393546 -15874.628407   7897.461706    110.874135                    
PR07 -14574.505869  -2365.433941  20859.458845     53.708788                    
PR08 -22096.588568   9083.118444   9042.580082    -70.327347                    
PR09  -3329.782050 -25160.763041  -2926.534879    114.442425                    
PR11 -10793.556205   2122.806244 -23005.687382    -35.169974                    
PR12  -5670.327281  20451.393310 -14142.305802     26.401978                    
PR13   2177.522087  25393.221670   1069.652162    -33.942150                    
PR14   9677.624595  15213.980114  18042.562264     24.528973                    
PR15  10822.811113  -3374.586545  22865.953493     89.824871                    
PR16   5575.191323 -20258.145788  14492.941639     13.450588                    
PR17  21793.256455  12945.361076   3005.034206    620.774081                    
PR18  21255.118869   4620.574233 -13264.708820     76.278866                    
PR19  11233.990332  -5003.809513 -22350.422923   -228.884112                    
PR20  -8855.743488 -14740.729143 -18856.624529    -91.031195                    
PR21 -22202.998778 -12470.939718  -1301.223380      0.362697                    
PR22 -20900.908829  -4560.842385  13931.824560     79.112556                    
PR24   9700.716866  14880.047283  18322.892917    161.546658                    
EOF                                     
